ONEWEB-0328             
1 49197U 21083M   24133.94130974  .00000272  00000+0  70866-3 0  9994
2 49197  87.8893 112.5585 0002070  82.4353 277.7011 13.13471436130446
ONEWEB-0331             
1 49198U 21083N   24133.93393045  .00000092  00000+0  19973-3 0  9996
2 49198  87.9120 127.7909 0002039  83.5013 276.6351 13.18685411129155
ONEWEB-0333             
1 49199U 21083P   24133.93655035  .00000357  00000+0  94238-3 0  9998
2 49199  87.8904 112.5819 0001965  91.9606 268.1749 13.13471592130455
ONEWEB-0334             
1 49200U 21083Q   24133.81587967  .00000110  00000+0  23827-3 0  9999
2 49200  87.9206  66.7661 0001821 105.2719 254.8616 13.20773005135760
ONEWEB-0335             
1 49201U 21083R   24133.93179555  .00000420  00000+0  11142-2 0  9993
2 49201  87.8904 112.5714 0002140  83.8743 276.2630 13.13471407130466
ONEWEB-0336             
1 49202U 21083S   24133.90162504 -.00000087  00000+0 -27445-3 0  9992
2 49202  87.8906 112.5737 0001928  89.5532 270.5818 13.13472222131750
ONEWEB-0337             
1 49203U 21083T   24133.91103521  .00000120  00000+0  29451-3 0  9993
2 49203  87.8901 112.5707 0002159  83.8220 276.3155 13.13471023130453
ONEWEB-0338             
1 49204U 21083U   24133.82219010  .00000115  00000+0  25096-3 0  9990
2 49204  87.9214  66.7463 0002189  92.0862 268.0522 13.20772969135786
ONEWEB-0339             
1 49205U 21083V   24133.92227124  .00000358  00000+0  94443-3 0  9998
2 49205  87.8899 112.5644 0002185  85.7877 274.3502 13.13469132130439
ONEWEB-0340             
1 49206U 21083W   24133.91970475  .00000093  00000+0  20287-3 0  9993
2 49206  87.9122 127.7881 0002002  83.6272 276.5088 13.18685496129119
ONEWEB-0341             
1 49207U 21083X   24133.92761572  .00000037  00000+0  62091-4 0  9999
2 49207  87.9121 127.8010 0002808  83.7014 276.4438 13.18686260129133
ONEWEB-0342             
1 49208U 21083Y   24133.82850061  .00000170  00000+0  38739-3 0  9990
2 49208  87.9206  66.7582 0002065  86.3485 273.7884 13.20772348135755
ONEWEB-0343             
1 49209U 21083Z   24133.69523816  .00000117  00000+0  26494-3 0  9997
2 49209  87.9114 127.8565 0002685  87.7531 272.3908 13.18686523129154
ONEWEB-0344             
1 49210U 21083AA  24133.96510819 -.00001427  00000+0 -39438-2 0  9996
2 49210  87.8904 112.5715 0002443  76.8528 283.2874 13.13476254130447
ONEWEB-0345             
1 49211U 21083AB  24133.90640234 -.00000008  00000+0 -55878-4 0  9998
2 49211  87.8902 112.5599 0002363  74.3454 285.7936 13.13471639130446
ONEWEB-0346             
1 49212U 21083AC  24133.70472224  .00000100  00000+0  22177-3 0  9995
2 49212  87.9121 127.8540 0001840  76.2685 283.8652 13.18685045129098
ONEWEB-0348             
1 49213U 21083AD  24133.89479632  .00000243  00000+0  56683-3 0  9993
2 49213  87.9215  66.7140 0002280  62.9117 297.2249 13.20773041135793
ONEWEB-0350             
1 49214U 21083AE  24133.91591160  .00000251  00000+0  65185-3 0  9994
2 49214  87.8901 112.5494 0002273  77.8785 282.2599 13.13473077131779
ONEWEB-0351             
1 49215U 21083AF  24133.81258882  .00000073  00000+0  14751-3 0  9990
2 49215  87.9208  66.7308 0002274 106.1418 253.9966 13.20771294135749
ONEWEB-0352             
1 49216U 21083AG  24133.89687014 -.00000196  00000+0 -57249-3 0  9999
2 49216  87.8905 112.5828 0002187  93.7554 266.3825 13.13472234130566
ONEWEB-0354             
1 49217U 21083AH  24133.83798099  .00000396  00000+0  94301-3 0  9990
2 49217  87.9213  66.7094 0002420  76.6947 283.4456 13.20772336135784
ONEWEB-0355             
1 49218U 21083AJ  24133.92703101  .00000387  00000+0  10254-2 0  9995
2 49218  87.8903 112.5765 0002205  87.2141 272.9241 13.13471837130447
ONEWEB-0357             
1 49219U 21083AK  24133.83482077  .00000111  00000+0  24025-3 0  9999
2 49219  87.9208  66.7296 0002250  84.5471 275.5919 13.20771612135787
ONEWEB-0332             
1 49279U 21090A   24133.93042400  .00000352  00000+0  91475-3 0  9996
2 49279  87.8950  81.9860 0001874  92.4822 267.6522 13.14505392127046
ONEWEB-0347             
1 49280U 21090B   24133.82535410  .00000116  00000+0  25224-3 0  9991
2 49280  87.9213  66.7295 0001840  93.8336 266.3007 13.20772806130010
ONEWEB-0349             
1 49281U 21090C   24133.85691715  .00000135  00000+0  30093-3 0  9997
2 49281  87.9214  66.7224 0002181  74.3743 285.7631 13.20772018128806
ONEWEB-0353             
1 49282U 21090D   24133.92249783  .00000253  00000+0  64756-3 0  9994
2 49282  87.8950  81.9722 0001931  90.9908 269.1443 13.14504333127042
ONEWEB-0356             
1 49283U 21090E   24133.85532917  .00000083  00000+0  17122-3 0  9997
2 49283  87.9212  66.7176 0001342  57.0972 303.0290 13.20772073128808
ONEWEB-0358             
1 49284U 21090F   24133.80955703  .00000066  00000+0  13090-3 0  9996
2 49284  87.9212  66.7129 0001973  71.5309 288.6039 13.20772182129522
ONEWEB-0359             
1 49285U 21090G   24133.88216861  .00000105  00000+0  22565-3 0  9991
2 49285  87.9210  66.7174 0002466  74.1951 285.9455 13.20772303129517
ONEWEB-0360             
1 49286U 21090H   24133.87270036  .00000083  00000+0  17271-3 0  9998
2 49286  87.9212  66.7239 0002126  79.0004 281.1368 13.20773132128823
ONEWEB-0361             
1 49287U 21090J   24133.85374641  .00000095  00000+0  20087-3 0  9996
2 49287  87.9212  66.7220 0001871  79.8003 280.3341 13.20771466129277
ONEWEB-0362             
1 49288U 21090K   24133.88253114  .00000056  00000+0  10796-3 0  9994
2 49288  87.9125  97.2923 0002403  89.2581 270.8827 13.19725337125978
ONEWEB-0363             
1 49289U 21090L   24133.86954185  .00000068  00000+0  13459-3 0  9991
2 49289  87.9211  66.7140 0001773  69.9472 290.1852 13.20773044129281
ONEWEB-0364             
1 49290U 21090M   24133.83167004  .00000141  00000+0  31363-3 0  9992
2 49290  87.9214  66.7460 0001921  80.7320 279.4031 13.20774091130418
ONEWEB-0365             
1 49291U 21090N   24133.89201040  .00000081  00000+0  16902-3 0  9993
2 49291  87.9119  97.2730 0002141  87.3134 272.8243 13.19726215125489
ONEWEB-0366             
1 49292U 21090P   24133.84321147  .00000302  00000+0  77897-3 0  9996
2 49292  87.8949  81.9968 0001863  84.9778 275.1564 13.14504956127014
ONEWEB-0367             
1 49293U 21090Q   24133.79219004  .00000045  00000+0  78155-4 0  9992
2 49293  87.9212  66.7239 0001829  86.6290 273.5052 13.20772444128797
ONEWEB-0368             
1 49294U 21090R   24133.84112511  .00000115  00000+0  25058-3 0  9995
2 49294  87.9214  66.7440 0001213  93.0338 267.0934 13.20772700129957
ONEWEB-0369             
1 49295U 21090S   24133.88726824  .00000000  00000+0 -33339-4 0  9994
2 49295  87.9128  97.2746 0002051  89.6832 270.4536 13.19725438125474
ONEWEB-0370             
1 49296U 21090T   24133.87742958  .00000040  00000+0  66973-4 0  9993
2 49296  87.9214  66.7112 0002388  76.6066 283.5333 13.20775570128845
ONEWEB-0371             
1 49297U 21090U   24133.89516115  .00000092  00000+0  19636-3 0  9990
2 49297  87.9127  97.2629 0002168  88.1940 271.9441 13.19725114125515
ONEWEB-0372             
1 49298U 21090V   24133.79049176  .00000063  00000+0  12424-3 0  9994
2 49298  87.9214  66.7367 0002025  85.0218 275.1146 13.20771578128809
ONEWEB-0373             
1 49299U 21090W   24133.89321617  .00000060  00000+0  11678-3 0  9996
2 49299  87.9213  66.7329 0001649  79.8612 280.2707 13.20772396130001
ONEWEB-0374             
1 49300U 21090X   24133.90664235  .00000122  00000+0  29451-3 0  9994
2 49300  87.8949  81.9697 0001877  83.6376 276.4968 13.14505039128317
ONEWEB-0375             
1 49301U 21090Y   24133.80483242  .00000053  00000+0  97376-4 0  9996
2 49301  87.9212  66.7264 0001767  59.1722 300.9585 13.20772967129495
ONEWEB-0376             
1 49302U 21090Z   24133.89358237  .00000039  00000+0  65939-4 0  9995
2 49302  87.9119  97.2738 0002109  93.4839 266.6535 13.19725777125515
ONEWEB-0377             
1 49303U 21090AA  24133.79075733 -.00000088  00000+0 -24946-3 0  9990
2 49303  87.9214  66.7207 0002192  75.4710 284.6667 13.20770218129482
ONEWEB-0378             
1 49304U 21090AB  24133.81286612  .00000119  00000+0  26159-3 0  9995
2 49304  87.9213  66.7186 0001916  77.2904 282.8443 13.20773010128750
ONEWEB-0379             
1 49305U 21090AC  24133.90188175  .00000123  00000+0  29834-3 0  9999
2 49305  87.8949  81.9733 0001964  83.9126 276.2227 13.14502983127024
ONEWEB-0380             
1 49306U 21090AD  24133.89042634  .00000075  00000+0  15392-3 0  9997
2 49306  87.9127  97.2769 0002109  83.3504 276.7868 13.19725330125481
ONEWEB-0381             
1 49307U 21090AE  24133.86322023  .00000038  00000+0  61864-4 0  9993
2 49307  87.9214  66.7128 0002054  77.8341 282.3023 13.20774558128808
ONEWEB-0382             
1 49308U 21090AF  24133.85060329  .00000106  00000+0  22989-3 0  9991
2 49308  87.9214  66.7128 0001585  71.2865 288.8440 13.20772509128792
ONEWEB-0383             
1 49309U 21090AG  24133.89553842 -.00000019  00000+0 -86218-4 0  9994
2 49309  87.8944  81.9636 0001767  82.8939 277.2391 13.14504906127059
ONEWEB-0384             
1 49310U 21090AH  24133.84742517  .00000110  00000+0  23832-3 0  9992
2 49310  87.9213  66.7241 0001525  69.4440 290.6857 13.20769841128802
ONEWEB-0385             
1 49311U 21090AJ  24133.76695657  .00000155  00000+0  34821-3 0  9995
2 49311  87.9214  66.7414 0001775  72.7628 287.3699 13.20772399128762
ONEWEB-0386             
1 49312U 21090AK  24133.86007356  .00000138  00000+0  30787-3 0  9998
2 49312  87.9207  66.7202 0001726  77.7907 282.3420 13.20773281128792
ONEWEB-0387             
1 49313U 21090AL  24133.84428851  .00000172  00000+0  39152-3 0  9997
2 49313  87.9212  66.7833 0002055  70.1973 289.9382 13.20772200128795
ONEWEB-0388             
1 49314U 21090AM  24133.88568793  .00000058  00000+0  11328-3 0  9990
2 49314  87.9126  97.2810 0001881  85.1885 274.9463 13.19725090125477
